NORAD_CAT_ID,OBJECT_NAME,OBJECT_TYPE,EPOCH,MEAN_MOTION,ECCENTRICITY,INCLINATION,RA_OF_ASC_NODE,ARG_OF_PERICENTER,MEAN_ANOMALY,BSTAR,MEAN_MOTION_DOT,MEAN_MOTION_DDOT,TLE_LINE0,TLE_LINE1,TLE_LINE2,SEMIMAJOR_AXIS,PERIOD,APOGEE,PERIGEE,DECAYED
55753.0,STARLINK-5617,PAYLOAD,2024-04-29 03:46:52,14.98309055,0.0003135,69.9999,157.768,264.7014,95.3788,-0.00038032,-4.626e-05,0.0,0 STARLINK-5617,1 55753U 23028N   24120.15755570 -.00004626  00000-0 -38032-3 0  9993,2 55753  69.9999 157.7680 0003135 264.7014  95.3788 14.98309055 64259,6950.258,96.108,574.302,569.944,0.0
55753.0,STARLINK-5617,PAYLOAD,2024-04-29 11:47:34,14.98300967,0.0003147,70.0001,156.9265,263.5324,96.5477,0.00045228,5.304e-05,0.0,0 STARLINK-5617,1 55753U 23028N   24120.49136748  .00005304  00000-0  45228-3 0  9997,2 55753  70.0001 156.9265 0003147 263.5324  96.5477 14.98300967 64307,6950.283,96.109,574.335,569.96,0.0
55753.0,STARLINK-5617,PAYLOAD,2024-04-29 19:48:14,14.98311976,0.0003129,70.0003,156.0849,261.7745,98.3059,0.00073775,8.717e-05,0.0,0 STARLINK-5617,1 55753U 23028N   24120.82517101  .00008717  00000-0  73775-3 0  9999,2 55753  70.0003 156.0849 0003129 261.7745  98.3059 14.98311976 64358,6950.249,96.108,574.288,569.939,0.0
55753.0,STARLINK-5617,PAYLOAD,2024-04-30 03:48:55,14.9832715,0.0003258,70.0,155.243,263.3444,96.7344,0.00099536,0.00011803,0.0,0 STARLINK-5617,1 55753U 23028N   24121.15897016  .00011803  00000-0  99536-3 0  9995,2 55753  70.0000 155.2430 0003258 263.3444  96.7344 14.98327150 64405,6950.202,96.107,574.331,569.802,0.0
55753.0,STARLINK-5617,PAYLOAD,2024-04-30 11:49:35,14.98336915,0.0003295,70.0001,154.4013,262.5135,97.565,0.00099902,0.0001185,0.0,0 STARLINK-5617,1 55753U 23028N   24121.49276946  .00011850  00000-0  99902-3 0  9994,2 55753  70.0001 154.4013 0003295 262.5135  97.5650 14.98336915 64456,6950.172,96.107,574.327,569.746,0.0
55753.0,STARLINK-5617,PAYLOAD,2024-04-30 19:50:15,14.98345106,0.0003293,70.0003,153.5599,262.1159,97.9627,0.0009815,0.00011642,0.0,0 STARLINK-5617,1 55753U 23028N   24121.82656690  .00011642  00000-0  98150-3 0  9992,2 55753  70.0003 153.5599 0003293 262.1159  97.9627 14.98345106 64503,6950.146,96.106,574.3,569.722,0.0
55753.0,STARLINK-5617,PAYLOAD,2024-05-01 03:50:55,14.98351419,0.0003256,70.0006,152.7183,261.3888,98.6902,0.0010268,0.00012187,0.0,0 STARLINK-5617,1 55753U 23028N   24122.16036408  .00012187  00000-0  10268-2 0  9997,2 55753  70.0006 152.7183 0003256 261.3888  98.6902 14.98351419 64558,6950.127,96.106,574.255,569.729,0.0
55753.0,STARLINK-5617,PAYLOAD,2024-05-01 08:39:19,14.98354216,0.0003274,70.0005,152.2135,261.7512,98.3276,0.0010369,0.00012309,0.0,0 STARLINK-5617,1 55753U 23028N   24122.36064181  .00012309  00000-0  10369-2 0  9996,2 55753  70.0005 152.2135 0003274 261.7512  98.3276 14.98354216 64589,6950.118,96.105,574.258,569.708,0.0
55753.0,STARLINK-5617,PAYLOAD,2024-05-01 19:52:15,14.98352822,0.0003304,70.0004,151.0353,261.4546,98.6239,0.00067163,7.935e-05,0.0,0 STARLINK-5617,1 55753U 23028N   24122.82795664  .00007935  00000-0  67163-3 0  9998,2 55753  70.0004 151.0353 0003304 261.4546  98.6239 14.98352822 64656,6950.122,96.106,574.284,569.691,0.0
55753.0,STARLINK-5617,PAYLOAD,2024-05-02 11:53:35,14.98353997,0.0003235,70.0,149.3521,261.6977,98.3816,0.0003639,4.254e-05,0.0,0 STARLINK-5617,1 55753U 23028N   24123.49554755  .00004254  00000-0  36390-3 0  9995,2 55753  70.0000 149.3521 0003235 261.6977  98.3816 14.98353997 64755,6950.119,96.105,574.232,569.735,0.0
55753.0,STARLINK-5617,PAYLOAD,2024-05-03 03:54:55,14.98342892,0.0003123,69.9995,147.6686,261.373,98.7075,7.2309e-06,-7e-08,0.0,0 STARLINK-5617,1 55753U 23028N   24124.16314517 -.00000007  00000-0  72309-5 0  9995,2 55753  69.9995 147.6686 0003123 261.3730  98.7075 14.98342892 64852,6950.153,96.106,574.189,569.847,0.0
55753.0,STARLINK-5617,PAYLOAD,2024-05-03 11:55:36,14.98342716,0.0003115,69.9983,146.8268,261.1989,98.8817,3.0414e-05,2.7e-06,0.0,0 STARLINK-5617,1 55753U 23028N   24124.49694453  .00000270  00000-0  30414-4 0  9992,2 55753  69.9983 146.8268 0003115 261.1989  98.8817 14.98342716 64907,6950.154,96.106,574.184,569.854,0.0
55753.0,STARLINK-5617,PAYLOAD,2024-05-03 18:20:08,14.98335966,0.000305,69.9988,146.1536,261.6264,98.4549,-6.5118e-05,-8.7e-06,0.0,0 STARLINK-5617,1 55753U 23028N   24124.76398914 -.00000870  00000-0 -65118-4 0  9992,2 55753  69.9988 146.1536 0003050 261.6264  98.4549 14.98335966 64943,6950.174,96.107,574.159,569.92,0.0
55753.0,STARLINK-5617,PAYLOAD,2024-05-04 10:21:29,14.98324194,0.0002858,69.9986,144.4704,258.2762,101.8077,-0.00011183,-1.427e-05,0.0,0 STARLINK-5617,1 55753U 23028N   24125.43159618 -.00001427  00000-0 -11183-3 0  9994,2 55753  69.9986 144.4704 0002858 258.2762 101.8077 14.98324194 65047,6950.211,96.107,574.062,570.089,0.0
55753.0,STARLINK-5617,PAYLOAD,2024-05-04 18:22:09,14.98334895,0.0002926,69.9988,143.6289,264.0328,96.0498,-0.00025778,-3.168e-05,0.0,0 STARLINK-5617,1 55753U 23028N   24125.76539270 -.00003168  00000-0 -25778-3 0  9995,2 55753  69.9988 143.6289 0002926 264.0328  96.0498 14.98334895 65093,6950.178,96.107,574.076,570.009,0.0
55753.0,STARLINK-5617,PAYLOAD,2024-05-05 10:23:30,14.98324946,0.0003032,69.9985,141.9454,264.2923,95.789,-4.9632e-05,-6.85e-06,0.0,0 STARLINK-5617,1 55753U 23028N   24126.43299641 -.00000685  00000-0 -49632-4 0  9992,2 55753  69.9985 141.9454 0003032 264.2923  95.7890 14.98324946 65196,6950.209,96.107,574.181,569.966,0.0
55753.0,STARLINK-5617,PAYLOAD,2024-05-05 18:24:11,14.98322666,0.0003037,69.9984,141.1039,264.5401,95.5412,-2.2366e-05,-3.6e-06,0.0,0 STARLINK-5617,1 55753U 23028N   24126.76679884 -.00000360  00000-0 -22366-4 0  9994,2 55753  69.9984 141.1039 0003037 264.5401  95.5412 14.98322666 65246,6950.216,96.107,574.191,569.97,0.0
55753.0,STARLINK-5617,PAYLOAD,2024-05-06 10:25:32,14.98323562,0.0003182,69.998,139.4201,265.8366,94.2429,0.00010879,1.205e-05,0.0,0 STARLINK-5617,1 55753U 23028N   24127.43439827  .00001205  00000-0  10879-3 0  9992,2 55753  69.9980 139.4201 0003182 265.8366  94.2429 14.98323562 65349,6950.213,96.107,574.289,569.866,0.0
55753.0,STARLINK-5617,PAYLOAD,2024-05-06 18:26:12,14.98325627,0.0003169,69.9981,138.5788,265.3577,94.722,0.0001217,1.359e-05,0.0,0 STARLINK-5617,1 55753U 23028N   24127.76819849  .00001359  00000-0  12170-3 0  9990,2 55753  69.9981 138.5788 0003169 265.3577  94.7220 14.98325627 65397,6950.206,96.107,574.274,569.869,0.0
55753.0,STARLINK-5617,PAYLOAD,2024-05-07 10:27:32,14.98330938,0.0003179,69.998,136.8955,265.4887,94.5909,0.0001385,1.56e-05,0.0,0 STARLINK-5617,1 55753U 23028N   24128.43579653  .00001560  00000-0  13850-3 0  9991,2 55753  69.9980 136.8955 0003179 265.4887  94.5909 14.98330938 65493,6950.19,96.107,574.264,569.846,0.0
55753.0,STARLINK-5617,PAYLOAD,2024-05-07 18:28:13,14.98332379,0.000318,69.9981,136.0538,265.4506,94.629,0.00013127,1.474e-05,0.0,0 STARLINK-5617,1 55753U 23028N   24128.76959522  .00001474  00000-0  13127-3 0  9995,2 55753  69.9981 136.0538 0003180 265.4506  94.6290 14.98332379 65544,6950.186,96.107,574.261,569.84,0.0
55753.0,STARLINK-5617,PAYLOAD,2024-05-08 10:29:33,14.98338217,0.0003175,69.9981,134.3704,265.2214,94.8583,0.00014904,1.686e-05,0.0,0 STARLINK-5617,1 55753U 23028N   24129.43719049  .00001686  00000-0  14904-3 0  9997,2 55753  69.9981 134.3704 0003175 265.2214  94.8583 14.98338217 65643,6950.167,96.106,574.239,569.826,0.0
55753.0,STARLINK-5617,PAYLOAD,2024-05-09 04:07:01,14.98342207,0.0003172,69.9981,132.5188,264.9757,95.104,0.00013323,1.497e-05,0.0,0 STARLINK-5617,1 55753U 23028N   24130.17154473  .00001497  00000-0  13323-3 0  9998,2 55753  69.9981 132.5188 0003172 264.9757  95.1040 14.98342207 65752,6950.155,96.106,574.225,569.816,0.0
55753.0,STARLINK-5617,PAYLOAD,2024-05-09 10:31:33,14.9834443,0.0003156,69.9982,131.8455,265.0135,95.0664,0.00015395,1.745e-05,0.0,0 STARLINK-5617,1 55753U 23028N   24130.43858123  .00001745  00000-0  15395-3 0  9997,2 55753  69.9982 131.8455 0003156 265.0135  95.0664 14.98344430 65791,6950.148,96.106,574.207,569.82,0.0
55753.0,STARLINK-5617,PAYLOAD,2024-05-10 05:45:10,14.98336981,0.0003063,69.9984,129.8257,265.3019,94.779,4.2141e-07,-8.8e-07,0.0,0 STARLINK-5617,1 55753U 23028N   24131.23970591 -.00000088  00000-0  42141-6 0  9992,2 55753  69.9984 129.8257 0003063 265.3019  94.7790 14.98336981 65913,6950.171,96.107,574.165,569.907,0.0
55753.0,STARLINK-5617,PAYLOAD,2024-05-10 08:57:26,14.98336669,0.0003034,69.9985,129.489,265.5986,94.4826,8.9912e-06,1.4e-07,0.0,0 STARLINK-5617,1 55753U 23028N   24131.37322516  .00000014  00000-0  89912-5 0  9999,2 55753  69.9985 129.4890 0003034 265.5986  94.4826 14.98336669 65938,6950.172,96.107,574.146,569.929,0.0
55753.0,STARLINK-5617,PAYLOAD,2024-05-11 01:01:00,14.96411692,0.0006753,69.9985,127.8108,9.7389,350.3899,-0.022874,-0.00250898,0.0,0 STARLINK-5617,1 55753U 23028N   24132.04236557 -.00250898  00000-0 -22874-1 0  9992,2 55753  69.9985 127.8108 0006753   9.7389 350.3899 14.96411692 66032,6956.131,96.23,582.694,573.299,0.0
55753.0,STARLINK-5617,PAYLOAD,2024-05-11 14:00:01,14.9834822,0.0003067,69.9995,126.4371,272.3256,133.3693,-0.0032505,-0.00038683,0.0,0 STARLINK-5617,1 55753U 23028N   24132.58335648 -.00038683  00000-0 -32505-2 0  9991,2 55753  69.9995 126.4371 0003067 272.3256 133.3693 14.98348220 66114,6950.137,96.106,574.133,569.87,0.0
55753.0,STARLINK-5617,PAYLOAD,2024-05-11 17:00:05,14.98341876,0.000238,70.0019,126.1216,286.7485,73.3412,6.4061e-05,6.72e-06,0.0,0 STARLINK-5617,1 55753U 23028N   24132.70839721  .00000672  00000-0  64061-4 0  9995,2 55753  70.0019 126.1216 0002380 286.7485  73.3412 14.98341876 66133,6950.156,96.106,573.675,570.367,0.0
55753.0,STARLINK-5617,PAYLOAD,2024-05-12 04:13:03,14.98341341,0.0002931,69.9994,124.9432,273.6576,86.4248,0.0001987,2.279e-05,0.0,0 STARLINK-5617,1 55753U 23028N   24133.17573187  .00002279  00000-0  19870-3 0  9990,2 55753  69.9994 124.9432 0002931 273.6576  86.4248 14.98341341 66203,6950.158,96.106,574.06,569.986,0.0
